TRANSPORTER-10 OBJECT AG
1 59128U 24043AG  26068.92552531  .00009498  00000+0  32170-3 0  9997
2 59128  97.5471 205.7101 0009300 226.5958 133.4509 15.30759727111920
STARLINK-32327          
1 61641U 24191W   26068.26598641 -.00005620  00000+0 -19481-3 0  9998
2 61641  42.9998 156.7153 0001265 212.4591 147.6183 15.27589969 77473
